{"fetched_at":"2026-03-30T06:02:59Z","count":15439,"tles":[{"name":"STARLINK-4422","line1":"1 53639U 22104BD  26087.86862220 -.00000543  00000+0 -16059-4 0  9990","line2":"2 53639  53.2159 137.8100 0001311  95.3037 264.8104 15.08840158198953","category":"Starlink"}]}